[{"OBJECT_NAME":"GOSAT 2 (IBUKI 1)","OBJECT_ID":"2018-084B","EPOCH":"2026-03-09T20:32:04.212384","MEAN_MOTION":14.84242316,"ECCENTRICITY":0.0001478,"INCLINATION":97.8678,"RA_OF_ASC_NODE":181.6299,"ARG_OF_PERICENTER":93.8371,"MEAN_ANOMALY":266.3012,"EPHEMERIS_TYPE":0,"CLASSIFICATION_TYPE":"U","NORAD_CAT_ID":43672,"ELEMENT_SET_NO":999,"REV_AT_EPOCH":39882,"BSTAR":0.00032562653,"MEAN_MOTION_DOT":2.674e-5,"MEAN_MOTION_DDOT":0},{"OBJECT_NAME":"COSMOS 374 DEB","OBJECT_ID":"1970-089AP","EPOCH":"2026-03-09T22:11:55.507200","MEAN_MOTION":12.87400798,"ECCENTRICITY":0.09776689,"INCLINATION":62.8042,"RA_OF_ASC_NODE":11.946,"ARG_OF_PERICENTER":196.7969,"MEAN_ANOMALY":159.8394,"EPHEMERIS_TYPE":0,"CLASSIFICATION_TYPE":"U","NORAD_CAT_ID":5076,"ELEMENT_SET_NO":999,"REV_AT_EPOCH":58291,"BSTAR":9.5284803e-5,"MEAN_MOTION_DOT":1.18e-6,"MEAN_MOTION_DDOT":0}]
